start=new Date('2023-06-01T00:00:00.000Z').valueOf();
sats=[{"MEAN_MOTION_DOT":"0.00002106","MEAN_MOTION":"15.06405865","APOAPSIS":"548.062","OBJECT_ID":"2020-025BD","ARG_OF_PERICENTER":"90.5939","EPOCH":"2023-05-31T16:49:28.852032","LAUNCH_DATE":"2020-04-22","DECAY_DATE":null,"SITE":"AFETR","OBJECT_TYPE":"PAYLOAD","TLE_LINE1":"1 45582U 20025BD  23151.70102838  .00002106  00000-0  16021-3 0  9996","NORAD_CAT_ID":"45582","CLASSIFICATION_TYPE":"U","PERIAPSIS":"546.329","OBJECT_NAME":"STARLINK-1337","PERIOD":"95.592","BSTAR":"0.00016021000000","INCLINATION":"53.0555","COUNTRY_CODE":"US","GP_ID":"232923526","MEAN_ANOMALY":"269.5193","MEAN_ELEMENT_THEORY":"SGP4","FILE":"3922037","MEAN_MOTION_DDOT":"0.0000000000000","REF_FRAME":"TEME","TIME_SYSTEM":"UTC","ELEMENT_SET_NO":"999","CENTER_NAME":"EARTH","SEMIMAJOR_AXIS":"6925.331","REV_AT_EPOCH":"17282","RA_OF_ASC_NODE":"304.1013","RCS_SIZE":"LARGE","ECCENTRICITY":"0.00012510","TLE_LINE2":"2 45582  53.0555 304.1013 0001251  90.5939 269.5193 15.06405865172820","EPHEMERIS_TYPE":"0"},{"EPOCH":"2023-05-31T17:58:29.205696","ARG_OF_PERICENTER":"33.8242","OBJECT_ID":"2020-025BE","APOAPSIS":"547.627","MEAN_MOTION":"15.06392505","MEAN_MOTION_DOT":"0.00004498","TLE_LINE1":"1 45583U 20025BE  23151.74894914  .00004498  00000-0  32070-3 0  9992","OBJECT_TYPE":"PAYLOAD","SITE":"AFETR","DECAY_DATE":null,"LAUNCH_DATE":"2020-04-22","OBJECT_NAME":"STARLINK-1340","PERIAPSIS":"546.846","CLASSIFICATION_TYPE":"U","NORAD_CAT_ID":"45583","TIME_SYSTEM":"UTC","MEAN_MOTION_DDOT":"0.0000000000000","REF_FRAME":"TEME","FILE":"3922037","MEAN_ANOMALY":"326.2782","MEAN_ELEMENT_THEORY":"SGP4","GP_ID":"232924777","COUNTRY_CODE":"US","INCLINATION":"53.0536","PERIOD":"95.593","BSTAR":"0.00032070000000","SEMIMAJOR_AXIS":"6925.372","CENTER_NAME":"EARTH","ELEMENT_SET_NO":"999","REV_AT_EPOCH":"17283","RCS_SIZE":"LARGE","RA_OF_ASC_NODE":"303.8842","EPHEMERIS_TYPE":"0","TLE_LINE2":"2 45583  53.0536 303.8842 0000564  33.8242 326.2782 15.06392505172831","ECCENTRICITY":"0.00005640"},{"TLE_LINE2":"2 45584  53.0492 285.3853 0001107 102.3999 257.7145 15.76741029173089","EPHEMERIS_TYPE":"0","ECCENTRICITY":"0.00011070","RCS_SIZE":"LARGE","RA_OF_ASC_NODE":"285.3853","REV_AT_EPOCH":"17308","CENTER_NAME":"EARTH","SEMIMAJOR_AXIS":"6717.818","ELEMENT_SET_NO":"999","REF_FRAME":"TEME","MEAN_MOTION_DDOT":"0.0000000000000","TIME_SYSTEM":"UTC","FILE":"3922037","MEAN_ELEMENT_THEORY":"SGP4","MEAN_ANOMALY":"257.7145","INCLINATION":"53.0492","PERIOD":"91.328","BSTAR":"0.00002715700000","GP_ID":"232925028","COUNTRY_CODE":"US","OBJECT_NAME":"STARLINK-1343","PERIAPSIS":"338.940","NORAD_CAT_ID":"45584","CLASSIFICATION_TYPE":"U","TLE_LINE1":"1 45584U 20025BF  23151.62258263  .00003795  00000-0  27157-4 0  9991","SITE":"AFETR","OBJECT_TYPE":"PAYLOAD","DECAY_DATE":null,"LAUNCH_DATE":"2020-04-22","EPOCH":"2023-05-31T14:56:31.139232","ARG_OF_PERICENTER":"102.3999","APOAPSIS":"340.427","OBJECT_ID":"2020-025BF","MEAN_MOTION":"15.76741029","MEAN_MOTION_DOT":"0.00003795"},{"FILE":"3922037","REF_FRAME":"TEME","MEAN_MOTION_DDOT":"0.0000000000000","TIME_SYSTEM":"UTC","PERIOD":"95.592","INCLINATION":"53.0547","BSTAR":"0.00078964000000","GP_ID":"232923776","COUNTRY_CODE":"US","MEAN_ANOMALY":"286.2915","MEAN_ELEMENT_THEORY":"SGP4","OBJECT_NAME":"STARLINK-1347","NORAD_CAT_ID":"45586","CLASSIFICATION_TYPE":"U","PERIAPSIS":"546.698","SITE":"AFETR","OBJECT_TYPE":"PAYLOAD","TLE_LINE1":"1 45586U 20025BH  23151.82635098  .00011503  00000-0  78964-3 0  9997","LAUNCH_DATE":"2020-04-22","DECAY_DATE":null,"ARG_OF_PERICENTER":"73.8152","EPOCH":"2023-05-31T19:49:56.724672","MEAN_MOTION_DOT":"0.00011503","MEAN_MOTION":"15.06409459","APOAPSIS":"547.671","OBJECT_ID":"2020-025BH","ECCENTRICITY":"0.00007030","TLE_LINE2":"2 45586  53.0547 303.5376 0000703  73.8152 286.2915 15.06409459172834","EPHEMERIS_TYPE":"0","RCS_SIZE":"LARGE","RA_OF_ASC_NODE":"303.5376","REV_AT_EPOCH":"17283","CENTER_NAME":"EARTH","SEMIMAJOR_AXIS":"6925.320","ELEMENT_SET_NO":"999"},{"TLE_LINE2":"2 45587  53.0538 303.3743 0001203  89.1837 270.9289 15.06400834172851","EPHEMERIS_TYPE":"0","ECCENTRICITY":"0.00012030","RCS_SIZE":"LARGE","RA_OF_ASC_NODE":"303.3743","REV_AT_EPOCH":"17285","ELEMENT_SET_NO":"999","CENTER_NAME":"EARTH","SEMIMAJOR_AXIS":"6925.346","MEAN_ANOMALY":"270.9289","MEAN_ELEMENT_THEORY":"SGP4","INCLINATION":"53.0538","PERIOD":"95.592","BSTAR":"0.00064950000000","GP_ID":"232924026","COUNTRY_CODE":"US","REF_FRAME":"TEME","MEAN_MOTION_DDOT":"0.0000000000000","TIME_SYSTEM":"UTC","FILE":"3922037","PERIAPSIS":"546.378","NORAD_CAT_ID":"45587","CLASSIFICATION_TYPE":"U","OBJECT_NAME":"STARLINK-1349","DECAY_DATE":null,"LAUNCH_DATE":"2020-04-22","TLE_LINE1":"1 45587U 20025BJ  23151.86321370  .00009406  00000-0  64950-3 0  9996","SITE":"AFETR","OBJECT_TYPE":"PAYLOAD","APOAPSIS":"548.044","OBJECT_ID":"2020-025BJ","MEAN_MOTION":"15.06400834","MEAN_MOTION_DOT":"0.00009406","EPOCH":"2023-05-31T20:43:01.663680","ARG_OF_PERICENTER":"89.1837"},{"RA_OF_ASC_NODE":"304.0684","RCS_SIZE":"LARGE","ECCENTRICITY":"0.00009500","EPHEMERIS_TYPE":"0","TLE_LINE2":"2 45588  53.0547 304.0684 0000950  76.0411 284.0683 15.06402269172820","SEMIMAJOR_AXIS":"6925.342","CENTER_NAME":"EARTH","ELEMENT_SET_NO":"999","REV_AT_EPOCH":"17282","OBJECT_NAME":"STARLINK-1360","CLASSIFICATION_TYPE":"U","NORAD_CAT_ID":"45588","PERIAPSIS":"546.549","FILE":"3922037","TIME_SYSTEM":"UTC","REF_FRAME":"TEME","MEAN_MOTION_DDOT":"0.0000000000000","COUNTRY_CODE":"US","GP_ID":"232924278","BSTAR":"0.00013958000000","PERIOD":"95.592","INCLINATION":"53.0547","MEAN_ANOMALY":"284.0683","MEAN_ELEMENT_THEORY":"SGP4","ARG_OF_PERICENTER":"76.0411","EPOCH":"2023-05-31T17:00:05.690880","MEAN_MOTION_DOT":"0.00001798","MEAN_MOTION":"15.06402269","OBJECT_ID":"2020-025BK","APOAPSIS":"547.865","OBJECT_TYPE":"PAYLOAD","SITE":"AFETR","TLE_LINE1":"1 45588U 20025BK  23151.70839920  .00001798  00000-0  13958-3 0  9993","LAUNCH_DATE":"2020-04-22","DECAY_DATE":null},{"MEAN_MOTION_DOT":"0.00007965","MEAN_MOTION":"15.06404922","OBJECT_ID":"2020-025BL","APOAPSIS":"547.801","ARG_OF_PERICENTER":"71.6458","EPOCH":"2023-05-31T20:05:52.446912","LAUNCH_DATE":"2020-04-22","DECAY_DATE":null,"OBJECT_TYPE":"PAYLOAD","SITE":"AFETR","TLE_LINE1":"1 45589U 20025BL  23151.83741258  .00007965  00000-0  55291-3 0  9992","CLASSIFICATION_TYPE":"U","NORAD_CAT_ID":"45589","PERIAPSIS":"546.596","OBJECT_NAME":"STARLINK-1364","GP_ID":"232924529","COUNTRY_CODE":"US","PERIOD":"95.592","INCLINATION":"53.0543","BSTAR":"0.00055291000000","MEAN_ANOMALY":"288.4626","MEAN_ELEMENT_THEORY":"SGP4","FILE":"3922037","TIME_SYSTEM":"UTC","MEAN_MOTION_DDOT":"0.0000000000000","REF_FRAME":"TEME","ELEMENT_SET_NO":"999","SEMIMAJOR_AXIS":"6925.333","CENTER_NAME":"EARTH","REV_AT_EPOCH":"17284","RA_OF_ASC_NODE":"303.4885","RCS_SIZE":"LARGE","ECCENTRICITY":"0.00008700","EPHEMERIS_TYPE":"0","TLE_LINE2":"2 45589  53.0543 303.4885 0000870  71.6458 288.4626 15.06404922172841"},{"REV_AT_EPOCH":"17245","SEMIMAJOR_AXIS":"6925.331","CENTER_NAME":"EARTH","ELEMENT_SET_NO":"999","ECCENTRICITY":"0.00006960","EPHEMERIS_TYPE":"0","TLE_LINE2":"2 45590  53.0533 333.1240 0000696  77.2577 282.8489 15.06405580172450","RA_OF_ASC_NODE":"333.1240","RCS_SIZE":"LARGE","OBJECT_TYPE":"PAYLOAD","SITE":"AFETR","TLE_LINE1":"1 45590U 20025BM  23151.91942256  .00007404  00000-0  51531-3 0  9995","LAUNCH_DATE":"2020-04-22","DECAY_DATE":null,"ARG_OF_PERICENTER":"77.2577","EPOCH":"2023-05-31T22:03:58.109184","MEAN_MOTION_DOT":"0.00007404","MEAN_MOTION":"15.06405580","OBJECT_ID":"2020-025BM","APOAPSIS":"547.678","FILE":"3922037","TIME_SYSTEM":"UTC","MEAN_MOTION_DDOT":"0.0000000000000","REF_FRAME":"TEME","GP_ID":"232923277","COUNTRY_CODE":"US","PERIOD":"95.592","INCLINATION":"53.0533","BSTAR":"0.00051531000000","MEAN_ANOMALY":"282.8489","MEAN_ELEMENT_THEORY":"SGP4","OBJECT_NAME":"STARLINK-1365","CLASSIFICATION_TYPE":"U","NORAD_CAT_ID":"45590","PERIAPSIS":"546.714"},{"ARG_OF_PERICENTER":"82.2600","EPOCH":"2023-05-31T16:40:12.468864","MEAN_MOTION":"15.06413516","MEAN_MOTION_DOT":"0.00010124","APOAPSIS":"547.856","OBJECT_ID":"2020-035B","SITE":"AFETR","OBJECT_TYPE":"PAYLOAD","TLE_LINE1":"1 45658U 20035B   23151.69458876  .00010124  00000-0  69731-3 0  9990","LAUNCH_DATE":"2020-06-04","DECAY_DATE":null,"OBJECT_NAME":"STARLINK-1441","NORAD_CAT_ID":"45658","CLASSIFICATION_TYPE":"U","PERIAPSIS":"546.489","FILE":"3922037","REF_FRAME":"TEME","MEAN_MOTION_DDOT":"0.0000000000000","TIME_SYSTEM":"UTC","BSTAR":"0.00069731000000","PERIOD":"95.591","INCLINATION":"53.0543","COUNTRY_CODE":"US","GP_ID":"232923781","MEAN_ELEMENT_THEORY":"SGP4","MEAN_ANOMALY":"277.8501","CENTER_NAME":"EARTH","SEMIMAJOR_AXIS":"6925.307","ELEMENT_SET_NO":"999","REV_AT_EPOCH":"16605","RA_OF_ASC_NODE":"294.1284","RCS_SIZE":"LARGE","ECCENTRICITY":"0.00009870","TLE_LINE2":"2 45658  53.0543 294.1284 0000987  82.2600 277.8501 15.06413516166052","EPHEMERIS_TYPE":"0"},{"FILE":"3922037","REF_FRAME":"TEME","MEAN_MOTION_DDOT":"0.0000000000000","TIME_SYSTEM":"UTC","PERIOD":"95.593","BSTAR":"0.00003342600000","INCLINATION":"53.0551","GP_ID":"232924031","COUNTRY_CODE":"US","MEAN_ANOMALY":"269.3268","MEAN_ELEMENT_THEORY":"SGP4","OBJECT_NAME":"STARLINK-1442","NORAD_CAT_ID":"45659","CLASSIFICATION_TYPE":"U","PERIAPSIS":"546.328","SITE":"AFETR","OBJECT_TYPE":"PAYLOAD","TLE_LINE1":"1 45659U 20035C   23151.69732532  .00000216  00000-0  33426-4 0  9999","LAUNCH_DATE":"2020-06-04","DECAY_DATE":null,"ARG_OF_PERICENTER":"90.7872","EPOCH":"2023-05-31T16:44:08.907648","MEAN_MOTION_DOT":"0.00000216","MEAN_MOTION":"15.06391101","APOAPSIS":"548.154","OBJECT_ID":"2020-035C","ECCENTRICITY":"0.00013180","TLE_LINE2":"2 45659  53.0551 294.1231 0001318  90.7872 269.3268 15.06391101166048","EPHEMERIS_TYPE":"0","RCS_SIZE":"LARGE","RA_OF_ASC_NODE":"294.1231","REV_AT_EPOCH":"16604","CENTER_NAME":"EARTH","SEMIMAJOR_AXIS":"6925.376","ELEMENT_SET_NO":"999"}];
